{"type":"FeatureCollection","features":[{"type":"Feature","properties":{"name":"Vatican City","pop_max":832,"adm0cap":1},"geometry":{"type":"Point","coordinates":[12.45,41.9]}},{"type":"Feature","properties":{"name":"San Marino","pop_max":29579,"adm0cap":1},"geometry":{"type":"Point","coordinates":[12.44,43.94]}},{"type":"Feature","properties":{"name":"Vaduz","pop_max":36281,"adm0cap":1},"geometry":{"type":"Point","coordinates":[9.52,47.13]}},{"type":"Feature","properties":{"name":"Lobamba","pop_max":9782,"adm0cap":0},"geometry":{"type":"Point","coordinates":[31.2,-26.47]}},{"type":"Feature","properties":{"name":"Luxembourg","pop_max":107260,"adm0cap":1},"geometry":{"type":"Point","coordinates":[6.13,49.61]}},{"type":"Feature","properties":{"name":"Palikir","pop_max":4645,"adm0cap":1},"geometry":{"type":"Point","coordinates":[158.15,6.92]}},{"type":"Feature","properties":{"name":"Majuro","pop_max":25400,"adm0cap":1},"geometry":{"type":"Point","coordinates":[171.38,7.1]}},{"type":"Feature","properties":{"name":"Funafuti","pop_max":4749,"adm0cap":1},"geometry":{"type":"Point","coordinates":[179.22,-8.52]}},{"type":"Feature","properties":{"name":"Melekeok","pop_max":7026,"adm0cap":1},"geometry":{"type":"Point","coordinates":[134.63,7.49]}},{"type":"Feature","properties":{"name":"Bir Lehlou","pop_max":500,"adm0cap":0},"geometry":{"type":"Point","coordinates":[-9.65,26.12]}},{"type":"Feature","properties":{"name":"Monaco","pop_max":36371,"adm0cap":1},"geometry":{"type":"Point","coordinates":[7.41,43.74]}},{"type":"Feature","properties":{"name":"Tarawa","pop_max":28802,"adm0cap":1},"geometry":{"type":"Point","coordinates":[173.02,1.34]}},{"type":"Feature","properties":{"name":"Moroni","pop_max":128698,"adm0cap":1},"geometry":{"type":"Point","coordinates":[43.24,-11.7]}},{"type":"Feature","properties":{"name":"Andorra","pop_max":53998,"adm0cap":1},"geometry":{"type":"Point","coordinates":[1.53,42.51]}},{"type":"Feature","properties":{"name":"Port-of-Spain","pop_max":294934,"adm0cap":1},"geometry":{"type":"Point","coordinates":[-61.52,10.65]}},{"type":"Feature","properties":{"name":"Kigali","pop_max":860000,"adm0cap":1},"geometry":{"type":"Point","coordinates":[30.06,-1.95]}},{"type":"Feature","properties":{"name":"Mbabane","pop_max":90138,"adm0cap":1},"geometry":{"type":"Point","coordinates":[31.13,-26.32]}},{"type":"Feature","properties":{"name":"Juba","pop_max":111975,"adm0cap":0},"geometry":{"type":"Point","coordinates":[31.58,4.83]}},{"type":"Feature","properties":{"name":"The Hague","pop_max":1406000,"adm0cap":0},"geometry":{"type":"Point","coordinates":[4.27,52.08]}},{"type":"Feature","properties":{"name":"Ljubljana","pop_max":314807,"adm0cap":1},"geometry":{"type":"Point","coordinates":[14.51,46.06]}},{"type":"Feature","properties":{"name":"Bratislava","pop_max":423737,"adm0cap":1},"geometry":{"type":"Point","coordinates":[17.12,48.15]}},{"type":"Feature","properties":{"name":"Doha","pop_max":1450000,"adm0cap":1},"geometry":{"type":"Point","coordinates":[51.53,25.29]}},{"type":"Feature","properties":{"name":"Podgorica","pop_max":145850,"adm0cap":1},"geometry":{"type":"Point","coordinates":[19.27,42.47]}},{"type":"Feature","properties":{"name":"Sri Jayawardenepura Kotte","pop_max":115826,"adm0cap":0},"geometry":{"type":"Point","coordinates":[79.95,6.9]}},{"type":"Feature","properties":{"name":"Baguio","pop_max":447824,"adm0cap":0},"geometry":{"type":"Point","coordinates":[120.57,16.43]}},{"type":"Feature","properties":{"name":"Dodoma","pop_max":218269,"adm0cap":0},"geometry":{"type":"Point","coordinates":[35.75,-6.18]}},{"type":"Feature","properties":{"name":"Bern","pop_max":275329,"adm0cap":1},"geometry":{"type":"Point","coordinates":[7.47,46.92]}},{"type":"Feature","properties":{"name":"Laayoune","pop_max":188084,"adm0cap":0},"geometry":{"type":"Point","coordinates":[-13.2,27.15]}},{"type":"Feature","properties":{"name":"Pristina","pop_max":465186,"adm0cap":1},"geometry":{"type":"Point","coordinates":[21.17,42.67]}},{"type":"Feature","properties":{"name":"Roseau","pop_max":23336,"adm0cap":1},"geometry":{"type":"Point","coordinates":[-61.39,15.3]}},{"type":"Feature","properties":{"name":"Djibouti","pop_max":923000,"adm0cap":1},"geometry":{"type":"Point","coordinates":[43.15,11.6]}},{"type":"Feature","properties":{"name":"Putrajaya","pop_max":67964,"adm0cap":0},"geometry":{"type":"Point","coordinates":[101.7,2.93]}},{"type":"Feature","properties":{"name":"Kyoto","pop_max":1805000,"adm0cap":0},"geometry":{"type":"Point","coordinates":[135.75,35.03]}},{"type":"Feature","properties":{"name":"Banjul","pop_max":43094,"adm0cap":1},"geometry":{"type":"Point","coordinates":[-16.59,13.45]}},{"type":"Feature","properties":{"name":"Skopje","pop_max":494087,"adm0cap":1},"geometry":{"type":"Point","coordinates":[21.43,42.0]}},{"type":"Feature","properties":{"name":"Bridgetown","pop_max":191152,"adm0cap":1},"geometry":{"type":"Point","coordinates":[-59.62,13.1]}},{"type":"Feature","properties":{"name":"Porto-Novo","pop_max":300000,"adm0cap":0},"geometry":{"type":"Point","coordinates":[2.62,6.48]}},{"type":"Feature","properties":{"name":"Bujumbura","pop_max":331700,"adm0cap":1},"geometry":{"type":"Point","coordinates":[29.36,-3.38]}},{"type":"Feature","properties":{"name":"Kingstown","pop_max":49485,"adm0cap":1},"geometry":{"type":"Point","coordinates":[-61.22,13.16]}},{"type":"Feature","properties":{"name":"Castries","pop_max":37963,"adm0cap":1},"geometry":{"type":"Point","coordinates":[-60.99,14.01]}},{"type":"Feature","properties":{"name":"Basseterre","pop_max":21887,"adm0cap":1},"geometry":{"type":"Point","coordinates":[-62.72,17.3]}},{"type":"Feature","properties":{"name":"Port Louis","pop_max":595491,"adm0cap":1},"geometry":{"type":"Point","coordinates":[57.5,-20.17]}},{"type":"Feature","properties":{"name":"Saint George's","pop_max":33734,"adm0cap":1},"geometry":{"type":"Point","coordinates":[-61.74,12.05]}},{"type":"Feature","properties":{"name":"Manama","pop_max":563920,"adm0cap":1},"geometry":{"type":"Point","coordinates":[50.58,26.24]}},{"type":"Feature","properties":{"name":"Saint John's","pop_max":35499,"adm0cap":1},"geometry":{"type":"Point","coordinates":[-61.85,17.12]}},{"type":"Feature","properties":{"name":"Montevideo","pop_max":1513000,"adm0cap":1},"geometry":{"type":"Point","coordinates":[-56.19,-34.91]}},{"type":"Feature","properties":{"name":"Lom\u00e9","pop_max":1452000,"adm0cap":1},"geometry":{"type":"Point","coordinates":[1.22,6.13]}},{"type":"Feature","properties":{"name":"Tunis","pop_max":2412500,"adm0cap":1},"geometry":{"type":"Point","coordinates":[10.18,36.8]}},{"type":"Feature","properties":{"name":"Abu Dhabi","pop_max":603492,"adm0cap":1},"geometry":{"type":"Point","coordinates":[54.37,24.47]}},{"type":"Feature","properties":{"name":"Ashgabat","pop_max":727700,"adm0cap":1},"geometry":{"type":"Point","coordinates":[58.38,37.95]}},{"type":"Feature","properties":{"name":"Lusaka","pop_max":1328000,"adm0cap":1},"geometry":{"type":"Point","coordinates":[28.28,-15.41]}},{"type":"Feature","properties":{"name":"Harare","pop_max":1572000,"adm0cap":1},"geometry":{"type":"Point","coordinates":[31.04,-17.82]}},{"type":"Feature","properties":{"name":"Dili","pop_max":234331,"adm0cap":1},"geometry":{"type":"Point","coordinates":[125.58,-8.56]}},{"type":"Feature","properties":{"name":"Port Vila","pop_max":44040,"adm0cap":1},"geometry":{"type":"Point","coordinates":[168.32,-17.73]}},{"type":"Feature","properties":{"name":"Tegucigalpa","pop_max":946000,"adm0cap":1},"geometry":{"type":"Point","coordinates":[-87.22,14.1]}},{"type":"Feature","properties":{"name":"Georgetown","pop_max":264350,"adm0cap":1},"geometry":{"type":"Point","coordinates":[-58.17,6.8]}},{"type":"Feature","properties":{"name":"Reykjav\u00edk","pop_max":166212,"adm0cap":1},"geometry":{"type":"Point","coordinates":[-21.94,64.14]}},{"type":"Feature","properties":{"name":"Port-au-Prince","pop_max":1998000,"adm0cap":1},"geometry":{"type":"Point","coordinates":[-72.34,18.54]}},{"type":"Feature","properties":{"name":"Kampala","pop_max":1420000,"adm0cap":1},"geometry":{"type":"Point","coordinates":[32.58,0.32]}},{"type":"Feature","properties":{"name":"Paramaribo","pop_max":254169,"adm0cap":1},"geometry":{"type":"Point","coordinates":[-55.17,5.84]}},{"type":"Feature","properties":{"name":"Niamey","pop_max":915000,"adm0cap":1},"geometry":{"type":"Point","coordinates":[2.11,13.52]}},{"type":"Feature","properties":{"name":"Dushanbe","pop_max":1086244,"adm0cap":1},"geometry":{"type":"Point","coordinates":[68.77,38.56]}},{"type":"Feature","properties":{"name":"Asunci\u00f3n","pop_max":1870000,"adm0cap":1},"geometry":{"type":"Point","coordinates":[-57.63,-25.29]}},{"type":"Feature","properties":{"name":"Managua","pop_max":920000,"adm0cap":1},"geometry":{"type":"Point","coordinates":[-86.27,12.15]}},{"type":"Feature","properties":{"name":"Freetown","pop_max":827000,"adm0cap":1},"geometry":{"type":"Point","coordinates":[-13.24,8.47]}},{"type":"Feature","properties":{"name":"Islamabad","pop_max":780000,"adm0cap":1},"geometry":{"type":"Point","coordinates":[73.08,33.69]}},{"type":"Feature","properties":{"name":"Kathmandu","pop_max":895000,"adm0cap":1},"geometry":{"type":"Point","coordinates":[85.31,27.72]}},{"type":"Feature","properties":{"name":"Bloemfontein","pop_max":463064,"adm0cap":1},"geometry":{"type":"Point","coordinates":[26.23,-29.12]}},{"type":"Feature","properties":{"name":"Pretoria","pop_max":1338000,"adm0cap":1},"geometry":{"type":"Point","coordinates":[28.23,-25.7]}},{"type":"Feature","properties":{"name":"Port Moresby","pop_max":283733,"adm0cap":1},"geometry":{"type":"Point","coordinates":[147.19,-9.46]}},{"type":"Feature","properties":{"name":"Honiara","pop_max":76328,"adm0cap":1},"geometry":{"type":"Point","coordinates":[159.95,-9.44]}},{"type":"Feature","properties":{"name":"Panama City","pop_max":1281000,"adm0cap":1},"geometry":{"type":"Point","coordinates":[-79.53,8.97]}},{"type":"Feature","properties":{"name":"Rabat","pop_max":1705000,"adm0cap":1},"geometry":{"type":"Point","coordinates":[-6.84,34.03]}},{"type":"Feature","properties":{"name":"Chi\u0219in\u0103u","pop_max":688134,"adm0cap":1},"geometry":{"type":"Point","coordinates":[28.86,47.01]}},{"type":"Feature","properties":{"name":"Maputo","pop_max":1446000,"adm0cap":1},"geometry":{"type":"Point","coordinates":[32.59,-25.95]}},{"type":"Feature","properties":{"name":"Mogadishu","pop_max":1100000,"adm0cap":1},"geometry":{"type":"Point","coordinates":[45.36,2.07]}},{"type":"Feature","properties":{"name":"Muscat","pop_max":734697,"adm0cap":1},"geometry":{"type":"Point","coordinates":[58.38,23.59]}},{"type":"Feature","properties":{"name":"Colombo","pop_max":217000,"adm0cap":1},"geometry":{"type":"Point","coordinates":[79.86,6.93]}},{"type":"Feature","properties":{"name":"Ulaanbaatar","pop_max":885000,"adm0cap":1},"geometry":{"type":"Point","coordinates":[106.91,47.92]}},{"type":"Feature","properties":{"name":"Windhoek","pop_max":268132,"adm0cap":1},"geometry":{"type":"Point","coordinates":[17.08,-22.57]}},{"type":"Feature","properties":{"name":"Abuja","pop_max":1576000,"adm0cap":1},"geometry":{"type":"Point","coordinates":[7.49,9.05]}},{"type":"Feature","properties":{"name":"Bissau","pop_max":403339,"adm0cap":1},"geometry":{"type":"Point","coordinates":[-15.6,11.87]}},{"type":"Feature","properties":{"name":"Amman","pop_max":1060000,"adm0cap":1},"geometry":{"type":"Point","coordinates":[35.93,31.95]}},{"type":"Feature","properties":{"name":"Vilnius","pop_max":542366,"adm0cap":1},"geometry":{"type":"Point","coordinates":[25.32,54.68]}},{"type":"Feature","properties":{"name":"Riga","pop_max":742572,"adm0cap":1},"geometry":{"type":"Point","coordinates":[24.1,56.95]}},{"type":"Feature","properties":{"name":"Bishkek","pop_max":837000,"adm0cap":1},"geometry":{"type":"Point","coordinates":[74.58,42.88]}},{"type":"Feature","properties":{"name":"Maseru","pop_max":361324,"adm0cap":1},"geometry":{"type":"Point","coordinates":[27.48,-29.32]}},{"type":"Feature","properties":{"name":"Antananarivo","pop_max":1697000,"adm0cap":1},"geometry":{"type":"Point","coordinates":[47.51,-18.91]}},{"type":"Feature","properties":{"name":"Quito","pop_max":1701000,"adm0cap":1},"geometry":{"type":"Point","coordinates":[-78.5,-0.21]}},{"type":"Feature","properties":{"name":"San Jos\u00e9","pop_max":1284000,"adm0cap":1},"geometry":{"type":"Point","coordinates":[-84.08,9.93]}},{"type":"Feature","properties":{"name":"San Salvador","pop_max":1433000,"adm0cap":1},"geometry":{"type":"Point","coordinates":[-89.22,13.7]}},{"type":"Feature","properties":{"name":"Kingston","pop_max":937700,"adm0cap":1},"geometry":{"type":"Point","coordinates":[-76.77,17.98]}},{"type":"Feature","properties":{"name":"N'Djamena","pop_max":989000,"adm0cap":1},"geometry":{"type":"Point","coordinates":[15.05,12.12]}},{"type":"Feature","properties":{"name":"Malabo","pop_max":155963,"adm0cap":1},"geometry":{"type":"Point","coordinates":[8.78,3.75]}},{"type":"Feature","properties":{"name":"Asmara","pop_max":620802,"adm0cap":1},"geometry":{"type":"Point","coordinates":[38.93,15.33]}},{"type":"Feature","properties":{"name":"Zagreb","pop_max":722526,"adm0cap":1},"geometry":{"type":"Point","coordinates":[16.0,45.8]}},{"type":"Feature","properties":{"name":"Tallinn","pop_max":394024,"adm0cap":1},"geometry":{"type":"Point","coordinates":[24.73,59.43]}},{"type":"Feature","properties":{"name":"Lilongwe","pop_max":646750,"adm0cap":1},"geometry":{"type":"Point","coordinates":[33.78,-13.98]}},{"type":"Feature","properties":{"name":"Guatemala City","pop_max":1024000,"adm0cap":1},"geometry":{"type":"Point","coordinates":[-90.53,14.62]}},{"type":"Feature","properties":{"name":"Libreville","pop_max":578156,"adm0cap":1},"geometry":{"type":"Point","coordinates":[9.46,0.39]}},{"type":"Feature","properties":{"name":"Suva","pop_max":175399,"adm0cap":1},"geometry":{"type":"Point","coordinates":[178.44,-18.13]}},{"type":"Feature","properties":{"name":"Valpara\u00edso","pop_max":854000,"adm0cap":0},"geometry":{"type":"Point","coordinates":[-71.62,-33.05]}},{"type":"Feature","properties":{"name":"Nouakchott","pop_max":742144,"adm0cap":1},"geometry":{"type":"Point","coordinates":[-15.98,18.09]}},{"type":"Feature","properties":{"name":"Bamako","pop_max":1494000,"adm0cap":1},"geometry":{"type":"Point","coordinates":[-8.0,12.65]}},{"type":"Feature","properties":{"name":"Beirut","pop_max":1846000,"adm0cap":1},"geometry":{"type":"Point","coordinates":[35.51,33.87]}},{"type":"Feature","properties":{"name":"Tbilisi","pop_max":1100000,"adm0cap":1},"geometry":{"type":"Point","coordinates":[44.79,41.73]}},{"type":"Feature","properties":{"name":"Nur-Sultan","pop_max":345604,"adm0cap":1},"geometry":{"type":"Point","coordinates":[71.43,51.18]}},{"type":"Feature","properties":{"name":"Vientiane","pop_max":754000,"adm0cap":1},"geometry":{"type":"Point","coordinates":[102.6,17.97]}},{"type":"Feature","properties":{"name":"Brazzaville","pop_max":1355000,"adm0cap":1},"geometry":{"type":"Point","coordinates":[15.28,-4.26]}},{"type":"Feature","properties":{"name":"Conakry","pop_max":1494000,"adm0cap":1},"geometry":{"type":"Point","coordinates":[-13.68,9.53]}},{"type":"Feature","properties":{"name":"Yamoussoukro","pop_max":206499,"adm0cap":1},"geometry":{"type":"Point","coordinates":[-5.28,6.82]}},{"type":"Feature","properties":{"name":"Ottawa","pop_max":1145000,"adm0cap":1},"geometry":{"type":"Point","coordinates":[-75.7,45.42]}},{"type":"Feature","properties":{"name":"Belgrade","pop_max":1099000,"adm0cap":1},"geometry":{"type":"Point","coordinates":[20.47,44.82]}},{"type":"Feature","properties":{"name":"Bandar Seri Begawan","pop_max":296500,"adm0cap":1},"geometry":{"type":"Point","coordinates":[114.93,4.88]}},{"type":"Feature","properties":{"name":"Sucre","pop_max":224838,"adm0cap":1},"geometry":{"type":"Point","coordinates":[-65.26,-19.04]}},{"type":"Feature","properties":{"name":"Belmopan","pop_max":15220,"adm0cap":1},"geometry":{"type":"Point","coordinates":[-88.77,17.25]}},{"type":"Feature","properties":{"name":"Bangui","pop_max":831925,"adm0cap":1},"geometry":{"type":"Point","coordinates":[18.56,4.37]}},{"type":"Feature","properties":{"name":"Yaound\u00e9","pop_max":1611000,"adm0cap":1},"geometry":{"type":"Point","coordinates":[11.51,3.87]}},{"type":"Feature","properties":{"name":"Tirana","pop_max":895350,"adm0cap":1},"geometry":{"type":"Point","coordinates":[19.82,41.33]}},{"type":"Feature","properties":{"name":"Yerevan","pop_max":1102000,"adm0cap":1},"geometry":{"type":"Point","coordinates":[44.51,40.18]}},{"type":"Feature","properties":{"name":"Baku","pop_max":2122300,"adm0cap":1},"geometry":{"type":"Point","coordinates":[49.86,40.4]}},{"type":"Feature","properties":{"name":"Phnom Penh","pop_max":1466000,"adm0cap":1},"geometry":{"type":"Point","coordinates":[104.91,11.55]}},{"type":"Feature","properties":{"name":"La Paz","pop_max":1590000,"adm0cap":1},"geometry":{"type":"Point","coordinates":[-68.15,-16.5]}},{"type":"Feature","properties":{"name":"Cotonou","pop_max":762000,"adm0cap":1},"geometry":{"type":"Point","coordinates":[2.4,6.36]}},{"type":"Feature","properties":{"name":"Sofia","pop_max":1185000,"adm0cap":1},"geometry":{"type":"Point","coordinates":[23.31,42.69]}},{"type":"Feature","properties":{"name":"Minsk","pop_max":1805000,"adm0cap":1},"geometry":{"type":"Point","coordinates":[27.56,53.9]}},{"type":"Feature","properties":{"name":"Thimphu","pop_max":98676,"adm0cap":1},"geometry":{"type":"Point","coordinates":[89.64,27.47]}},{"type":"Feature","properties":{"name":"Gaborone","pop_max":208411,"adm0cap":1},"geometry":{"type":"Point","coordinates":[25.91,-24.65]}},{"type":"Feature","properties":{"name":"Canberra","pop_max":327700,"adm0cap":1},"geometry":{"type":"Point","coordinates":[149.13,-35.28]}},{"type":"Feature","properties":{"name":"Ouagadougou","pop_max":1149000,"adm0cap":1},"geometry":{"type":"Point","coordinates":[-1.53,12.37]}},{"type":"Feature","properties":{"name":"Sarajevo","pop_max":696731,"adm0cap":1},"geometry":{"type":"Point","coordinates":[18.38,43.85]}},{"type":"Feature","properties":{"name":"Naypyidaw","pop_max":930000,"adm0cap":1},"geometry":{"type":"Point","coordinates":[96.12,19.77]}},{"type":"Feature","properties":{"name":"Nuku'alofa","pop_max":42620,"adm0cap":1},"geometry":{"type":"Point","coordinates":[-175.22,-21.14]}},{"type":"Feature","properties":{"name":"Hargeisa","pop_max":477876,"adm0cap":1},"geometry":{"type":"Point","coordinates":[44.07,9.56]}},{"type":"Feature","properties":{"name":"Victoria","pop_max":33576,"adm0cap":1},"geometry":{"type":"Point","coordinates":[55.45,-4.62]}},{"type":"Feature","properties":{"name":"S\u00e3o Tom\u00e9","pop_max":88219,"adm0cap":1},"geometry":{"type":"Point","coordinates":[6.73,0.34]}},{"type":"Feature","properties":{"name":"Apia","pop_max":61916,"adm0cap":1},"geometry":{"type":"Point","coordinates":[-171.77,-13.84]}},{"type":"Feature","properties":{"name":"Valletta","pop_max":368250,"adm0cap":1},"geometry":{"type":"Point","coordinates":[14.51,35.9]}},{"type":"Feature","properties":{"name":"Mal\u00e9","pop_max":112927,"adm0cap":1},"geometry":{"type":"Point","coordinates":[73.51,4.17]}},{"type":"Feature","properties":{"name":"Jerusalem","pop_max":1029300,"adm0cap":1},"geometry":{"type":"Point","coordinates":[35.21,31.78]}},{"type":"Feature","properties":{"name":"Praia","pop_max":113364,"adm0cap":1},"geometry":{"type":"Point","coordinates":[-23.52,14.92]}},{"type":"Feature","properties":{"name":"Nassau","pop_max":227940,"adm0cap":1},"geometry":{"type":"Point","coordinates":[-77.35,25.08]}},{"type":"Feature","properties":{"name":"Nicosia","pop_max":224300,"adm0cap":1},"geometry":{"type":"Point","coordinates":[33.37,35.17]}},{"type":"Feature","properties":{"name":"Wellington","pop_max":393400,"adm0cap":1},"geometry":{"type":"Point","coordinates":[174.78,-41.29]}},{"type":"Feature","properties":{"name":"Hanoi","pop_max":4378000,"adm0cap":1},"geometry":{"type":"Point","coordinates":[105.85,21.04]}},{"type":"Feature","properties":{"name":"Ankara","pop_max":3716000,"adm0cap":1},"geometry":{"type":"Point","coordinates":[32.86,39.93]}},{"type":"Feature","properties":{"name":"Budapest","pop_max":1679000,"adm0cap":1},"geometry":{"type":"Point","coordinates":[19.08,47.5]}},{"type":"Feature","properties":{"name":"Sanaa","pop_max":2008000,"adm0cap":1},"geometry":{"type":"Point","coordinates":[44.2,15.36]}},{"type":"Feature","properties":{"name":"Bucharest","pop_max":1942000,"adm0cap":1},"geometry":{"type":"Point","coordinates":[26.1,44.44]}},{"type":"Feature","properties":{"name":"Damascus","pop_max":2466000,"adm0cap":1},"geometry":{"type":"Point","coordinates":[36.3,33.5]}},{"type":"Feature","properties":{"name":"Lisbon","pop_max":2812000,"adm0cap":1},"geometry":{"type":"Point","coordinates":[-9.15,38.72]}},{"type":"Feature","properties":{"name":"Khartoum","pop_max":4754000,"adm0cap":1},"geometry":{"type":"Point","coordinates":[32.53,15.59]}},{"type":"Feature","properties":{"name":"Oslo","pop_max":835000,"adm0cap":1},"geometry":{"type":"Point","coordinates":[10.75,59.92]}},{"type":"Feature","properties":{"name":"Warsaw","pop_max":1707000,"adm0cap":1},"geometry":{"type":"Point","coordinates":[21.01,52.23]}},{"type":"Feature","properties":{"name":"Pyongyang","pop_max":3300000,"adm0cap":1},"geometry":{"type":"Point","coordinates":[125.75,39.02]}},{"type":"Feature","properties":{"name":"Dar es Salaam","pop_max":2930000,"adm0cap":1},"geometry":{"type":"Point","coordinates":[39.27,-6.8]}},{"type":"Feature","properties":{"name":"Dublin","pop_max":1059000,"adm0cap":1},"geometry":{"type":"Point","coordinates":[-6.26,53.35]}},{"type":"Feature","properties":{"name":"Monrovia","pop_max":1041000,"adm0cap":1},"geometry":{"type":"Point","coordinates":[-10.8,6.31]}},{"type":"Feature","properties":{"name":"Kuala Lumpur","pop_max":1448000,"adm0cap":1},"geometry":{"type":"Point","coordinates":[101.69,3.14]}},{"type":"Feature","properties":{"name":"Havana","pop_max":2174000,"adm0cap":1},"geometry":{"type":"Point","coordinates":[-82.37,23.13]}},{"type":"Feature","properties":{"name":"Prague","pop_max":1162000,"adm0cap":1},"geometry":{"type":"Point","coordinates":[14.42,50.09]}},{"type":"Feature","properties":{"name":"Kuwait City","pop_max":2063000,"adm0cap":1},"geometry":{"type":"Point","coordinates":[47.98,29.37]}},{"type":"Feature","properties":{"name":"Santo Domingo","pop_max":2154000,"adm0cap":1},"geometry":{"type":"Point","coordinates":[-69.93,18.47]}},{"type":"Feature","properties":{"name":"Accra","pop_max":2121000,"adm0cap":1},"geometry":{"type":"Point","coordinates":[-0.22,5.55]}},{"type":"Feature","properties":{"name":"Tripoli","pop_max":2189000,"adm0cap":1},"geometry":{"type":"Point","coordinates":[13.18,32.89]}},{"type":"Feature","properties":{"name":"Tel Aviv","pop_max":3112000,"adm0cap":0},"geometry":{"type":"Point","coordinates":[34.77,32.08]}},{"type":"Feature","properties":{"name":"Helsinki","pop_max":1115000,"adm0cap":1},"geometry":{"type":"Point","coordinates":[24.93,60.16]}},{"type":"Feature","properties":{"name":"K\u00f8benhavn","pop_max":1085000,"adm0cap":1},"geometry":{"type":"Point","coordinates":[12.56,55.68]}},{"type":"Feature","properties":{"name":"Abidjan","pop_max":3802000,"adm0cap":1},"geometry":{"type":"Point","coordinates":[-4.02,5.32]}},{"type":"Feature","properties":{"name":"Bras\u00edlia","pop_max":3716996,"adm0cap":1},"geometry":{"type":"Point","coordinates":[-47.92,-15.78]}},{"type":"Feature","properties":{"name":"Brussels","pop_max":1743000,"adm0cap":1},"geometry":{"type":"Point","coordinates":[4.33,50.84]}},{"type":"Feature","properties":{"name":"Dhaka","pop_max":12797394,"adm0cap":1},"geometry":{"type":"Point","coordinates":[90.41,23.73]}},{"type":"Feature","properties":{"name":"Luanda","pop_max":5172900,"adm0cap":1},"geometry":{"type":"Point","coordinates":[13.23,-8.84]}},{"type":"Feature","properties":{"name":"Algiers","pop_max":3354000,"adm0cap":1},"geometry":{"type":"Point","coordinates":[3.05,36.77]}},{"type":"Feature","properties":{"name":"Yangon","pop_max":4088000,"adm0cap":0},"geometry":{"type":"Point","coordinates":[96.16,16.79]}},{"type":"Feature","properties":{"name":"San Francisco","pop_max":3450000,"adm0cap":0},"geometry":{"type":"Point","coordinates":[-122.4,37.78]}},{"type":"Feature","properties":{"name":"Denver","pop_max":2313000,"adm0cap":0},"geometry":{"type":"Point","coordinates":[-104.99,39.74]}},{"type":"Feature","properties":{"name":"Houston","pop_max":4459000,"adm0cap":0},"geometry":{"type":"Point","coordinates":[-95.35,29.74]}},{"type":"Feature","properties":{"name":"Miami","pop_max":5585000,"adm0cap":0},"geometry":{"type":"Point","coordinates":[-80.23,25.79]}},{"type":"Feature","properties":{"name":"Atlanta","pop_max":4506000,"adm0cap":0},"geometry":{"type":"Point","coordinates":[-84.37,33.74]}},{"type":"Feature","properties":{"name":"Chicago","pop_max":8990000,"adm0cap":0},"geometry":{"type":"Point","coordinates":[-87.64,41.85]}},{"type":"Feature","properties":{"name":"Caracas","pop_max":2985000,"adm0cap":1},"geometry":{"type":"Point","coordinates":[-66.92,10.5]}},{"type":"Feature","properties":{"name":"Kyiv","pop_max":2709000,"adm0cap":1},"geometry":{"type":"Point","coordinates":[30.51,50.44]}},{"type":"Feature","properties":{"name":"Dubai","pop_max":1379000,"adm0cap":0},"geometry":{"type":"Point","coordinates":[55.29,25.21]}},{"type":"Feature","properties":{"name":"Tashkent","pop_max":2184000,"adm0cap":1},"geometry":{"type":"Point","coordinates":[69.27,41.3]}},{"type":"Feature","properties":{"name":"Madrid","pop_max":5567000,"adm0cap":1},"geometry":{"type":"Point","coordinates":[-3.69,40.4]}},{"type":"Feature","properties":{"name":"Geneva","pop_max":1240000,"adm0cap":0},"geometry":{"type":"Point","coordinates":[6.14,46.21]}},{"type":"Feature","properties":{"name":"Stockholm","pop_max":1264000,"adm0cap":1},"geometry":{"type":"Point","coordinates":[18.07,59.32]}},{"type":"Feature","properties":{"name":"Bangkok","pop_max":6704000,"adm0cap":1},"geometry":{"type":"Point","coordinates":[100.51,13.75]}},{"type":"Feature","properties":{"name":"Lima","pop_max":8012000,"adm0cap":1},"geometry":{"type":"Point","coordinates":[-77.05,-12.05]}},{"type":"Feature","properties":{"name":"Dakar","pop_max":2604000,"adm0cap":1},"geometry":{"type":"Point","coordinates":[-17.48,14.72]}},{"type":"Feature","properties":{"name":"Johannesburg","pop_max":3435000,"adm0cap":0},"geometry":{"type":"Point","coordinates":[28.03,-26.17]}},{"type":"Feature","properties":{"name":"Amsterdam","pop_max":1031000,"adm0cap":1},"geometry":{"type":"Point","coordinates":[4.91,52.35]}},{"type":"Feature","properties":{"name":"Casablanca","pop_max":3181000,"adm0cap":0},"geometry":{"type":"Point","coordinates":[-7.62,33.6]}},{"type":"Feature","properties":{"name":"Seoul","pop_max":9796000,"adm0cap":1},"geometry":{"type":"Point","coordinates":[127.0,37.57]}},{"type":"Feature","properties":{"name":"Manila","pop_max":11100000,"adm0cap":1},"geometry":{"type":"Point","coordinates":[120.98,14.61]}},{"type":"Feature","properties":{"name":"Monterrey","pop_max":3712000,"adm0cap":0},"geometry":{"type":"Point","coordinates":[-100.33,25.67]}},{"type":"Feature","properties":{"name":"Berlin","pop_max":3406000,"adm0cap":1},"geometry":{"type":"Point","coordinates":[13.4,52.52]}},{"type":"Feature","properties":{"name":"\u00dcr\u00fcmqi","pop_max":3575000,"adm0cap":0},"geometry":{"type":"Point","coordinates":[87.57,43.81]}},{"type":"Feature","properties":{"name":"Chengdu","pop_max":4123000,"adm0cap":0},"geometry":{"type":"Point","coordinates":[104.07,30.67]}},{"type":"Feature","properties":{"name":"\u014csaka","pop_max":11294000,"adm0cap":0},"geometry":{"type":"Point","coordinates":[135.5,34.69]}},{"type":"Feature","properties":{"name":"Kinshasa","pop_max":7843000,"adm0cap":1},"geometry":{"type":"Point","coordinates":[15.31,-4.33]}},{"type":"Feature","properties":{"name":"New Delhi","pop_max":317797,"adm0cap":1},"geometry":{"type":"Point","coordinates":[77.2,28.6]}},{"type":"Feature","properties":{"name":"Bengaluru","pop_max":6787000,"adm0cap":0},"geometry":{"type":"Point","coordinates":[77.56,12.97]}},{"type":"Feature","properties":{"name":"Athens","pop_max":3242000,"adm0cap":1},"geometry":{"type":"Point","coordinates":[23.73,37.99]}},{"type":"Feature","properties":{"name":"Baghdad","pop_max":5054000,"adm0cap":1},"geometry":{"type":"Point","coordinates":[44.39,33.34]}},{"type":"Feature","properties":{"name":"Addis Ababa","pop_max":3100000,"adm0cap":1},"geometry":{"type":"Point","coordinates":[38.7,9.04]}},{"type":"Feature","properties":{"name":"Tehran","pop_max":7873000,"adm0cap":1},"geometry":{"type":"Point","coordinates":[51.42,35.67]}},{"type":"Feature","properties":{"name":"Vancouver","pop_max":2313328,"adm0cap":0},"geometry":{"type":"Point","coordinates":[-123.12,49.28]}},{"type":"Feature","properties":{"name":"Toronto","pop_max":5213000,"adm0cap":0},"geometry":{"type":"Point","coordinates":[-79.39,43.66]}},{"type":"Feature","properties":{"name":"Buenos Aires","pop_max":12795000,"adm0cap":1},"geometry":{"type":"Point","coordinates":[-58.43,-34.61]}},{"type":"Feature","properties":{"name":"Kabul","pop_max":3277000,"adm0cap":1},"geometry":{"type":"Point","coordinates":[69.18,34.52]}},{"type":"Feature","properties":{"name":"Vienna","pop_max":2400000,"adm0cap":1},"geometry":{"type":"Point","coordinates":[16.36,48.2]}},{"type":"Feature","properties":{"name":"Melbourne","pop_max":4170000,"adm0cap":0},"geometry":{"type":"Point","coordinates":[144.97,-37.82]}},{"type":"Feature","properties":{"name":"Taipei","pop_max":6900273,"adm0cap":1},"geometry":{"type":"Point","coordinates":[121.57,25.04]}},{"type":"Feature","properties":{"name":"Auckland","pop_max":1377200,"adm0cap":0},"geometry":{"type":"Point","coordinates":[174.76,-36.85]}},{"type":"Feature","properties":{"name":"Los Angeles","pop_max":12500000,"adm0cap":0},"geometry":{"type":"Point","coordinates":[-118.23,34.05]}},{"type":"Feature","properties":{"name":"Washington,  D.C.","pop_max":4338000,"adm0cap":1},"geometry":{"type":"Point","coordinates":[-77.01,38.9]}},{"type":"Feature","properties":{"name":"New York","pop_max":19040000,"adm0cap":0},"geometry":{"type":"Point","coordinates":[-74.0,40.72]}},{"type":"Feature","properties":{"name":"London","pop_max":8567000,"adm0cap":1},"geometry":{"type":"Point","coordinates":[-0.12,51.5]}},{"type":"Feature","properties":{"name":"Istanbul","pop_max":10061000,"adm0cap":0},"geometry":{"type":"Point","coordinates":[28.97,41.02]}},{"type":"Feature","properties":{"name":"Riyadh","pop_max":4465000,"adm0cap":1},"geometry":{"type":"Point","coordinates":[46.72,24.63]}},{"type":"Feature","properties":{"name":"Cape Town","pop_max":3215000,"adm0cap":1},"geometry":{"type":"Point","coordinates":[18.43,-33.92]}},{"type":"Feature","properties":{"name":"Moscow","pop_max":10452000,"adm0cap":1},"geometry":{"type":"Point","coordinates":[37.61,55.75]}},{"type":"Feature","properties":{"name":"Mexico City","pop_max":19028000,"adm0cap":1},"geometry":{"type":"Point","coordinates":[-99.13,19.44]}},{"type":"Feature","properties":{"name":"Lagos","pop_max":9466000,"adm0cap":0},"geometry":{"type":"Point","coordinates":[3.39,6.45]}},{"type":"Feature","properties":{"name":"Rome","pop_max":3339000,"adm0cap":1},"geometry":{"type":"Point","coordinates":[12.48,41.9]}},{"type":"Feature","properties":{"name":"Beijing","pop_max":11106000,"adm0cap":1},"geometry":{"type":"Point","coordinates":[116.39,39.9]}},{"type":"Feature","properties":{"name":"Nairobi","pop_max":3010000,"adm0cap":1},"geometry":{"type":"Point","coordinates":[36.81,-1.28]}},{"type":"Feature","properties":{"name":"Jakarta","pop_max":9125000,"adm0cap":1},"geometry":{"type":"Point","coordinates":[106.83,-6.17]}},{"type":"Feature","properties":{"name":"Bogota","pop_max":7772000,"adm0cap":1},"geometry":{"type":"Point","coordinates":[-74.09,4.6]}},{"type":"Feature","properties":{"name":"Cairo","pop_max":11893000,"adm0cap":1},"geometry":{"type":"Point","coordinates":[31.25,30.05]}},{"type":"Feature","properties":{"name":"Shanghai","pop_max":14987000,"adm0cap":0},"geometry":{"type":"Point","coordinates":[121.43,31.22]}},{"type":"Feature","properties":{"name":"Tokyo","pop_max":35676000,"adm0cap":1},"geometry":{"type":"Point","coordinates":[139.75,35.69]}},{"type":"Feature","properties":{"name":"Mumbai","pop_max":18978000,"adm0cap":0},"geometry":{"type":"Point","coordinates":[72.88,19.07]}},{"type":"Feature","properties":{"name":"Paris","pop_max":9904000,"adm0cap":1},"geometry":{"type":"Point","coordinates":[2.35,48.86]}},{"type":"Feature","properties":{"name":"Santiago","pop_max":5720000,"adm0cap":1},"geometry":{"type":"Point","coordinates":[-70.65,-33.44]}},{"type":"Feature","properties":{"name":"Kolkata","pop_max":14787000,"adm0cap":0},"geometry":{"type":"Point","coordinates":[88.37,22.57]}},{"type":"Feature","properties":{"name":"Rio de Janeiro","pop_max":11748000,"adm0cap":0},"geometry":{"type":"Point","coordinates":[-43.21,-22.91]}},{"type":"Feature","properties":{"name":"S\u00e3o Paulo","pop_max":18845000,"adm0cap":0},"geometry":{"type":"Point","coordinates":[-46.63,-23.56]}},{"type":"Feature","properties":{"name":"Sydney","pop_max":4630000,"adm0cap":0},"geometry":{"type":"Point","coordinates":[151.21,-33.87]}},{"type":"Feature","properties":{"name":"Singapore","pop_max":5183700,"adm0cap":1},"geometry":{"type":"Point","coordinates":[103.85,1.29]}},{"type":"Feature","properties":{"name":"Hong Kong","pop_max":7206000,"adm0cap":0},"geometry":{"type":"Point","coordinates":[114.18,22.31]}}]}