{"type":"FeatureCollection","features":[{"type":"Feature","properties":{"name":"Tonl\u00e9 Sap"},"geometry":{"type":"Polygon","coordinates":[[[104.532,12.458],[104.464,12.506],[104.401,12.508],[104.258,12.564],[104.14,12.671],[104.105,12.789],[104.008,12.804],[103.895,12.867],[103.806,12.947],[103.755,13.039],[103.724,13.121],[103.699,13.207],[103.731,13.25],[103.842,13.235],[103.981,13.179],[104.1,13.036],[104.199,12.845],[104.235,12.764],[104.268,12.739],[104.37,12.747],[104.44,12.724],[104.468,12.64],[104.468,12.571],[104.471,12.559],[104.498,12.54],[104.555,12.514],[104.558,12.486],[104.565,12.463],[104.591,12.432],[104.57,12.426],[104.532,12.458]]]}},{"type":"Feature","properties":{"name":"Nam Ngum Reservoir"},"geometry":{"type":"Polygon","coordinates":[[[102.826,18.527],[102.719,18.497],[102.675,18.465],[102.646,18.45],[102.615,18.476],[102.571,18.56],[102.546,18.615],[102.527,18.669],[102.506,18.746],[102.527,18.759],[102.561,18.735],[102.582,18.696],[102.622,18.681],[102.638,18.673],[102.659,18.662],[102.704,18.657],[102.747,18.65],[102.753,18.599],[102.791,18.569],[102.851,18.55],[102.885,18.544],[102.894,18.541],[102.879,18.527],[102.826,18.527]]]}}]}