{"type":"FeatureCollection","features":[{"type":"Feature","properties":{"name":"Ayeyarwady","scalerank":2},"geometry":{"type":"MultiLineString","coordinates":[[[97.208,25.0],[97.196,24.981],[97.117,24.933],[97.055,24.835],[97.055,24.755],[97.095,24.659],[97.117,24.552],[97.12,24.432],[97.142,24.347],[97.184,24.296],[97.198,24.252],[97.183,24.214],[97.114,24.178],[96.991,24.145],[96.892,24.169],[96.819,24.25],[96.737,24.307],[96.647,24.341],[96.561,24.344],[96.479,24.317],[96.402,24.251],[96.331,24.148],[96.291,24.059],[96.28,23.946],[96.085,23.653],[96.006,23.359],[95.979,22.966],[95.949,22.754],[95.917,22.723],[95.923,22.663],[95.968,22.574],[95.984,22.495],[95.97,22.427],[95.976,22.377],[96.0,22.347],[96.02,22.23],[96.034,22.026],[96.009,21.907],[95.946,21.873],[95.879,21.875],[95.811,21.913],[95.71,21.928],[95.578,21.921],[95.481,21.871],[95.418,21.779],[95.373,21.666],[95.344,21.531],[95.315,21.458],[95.269,21.438],[95.173,21.345],[95.061,21.287],[95.0,21.266]],[[95.0,20.014],[95.081,19.91],[95.14,19.845],[95.169,19.71],[95.188,19.485],[95.177,19.277],[95.136,19.087],[95.14,18.945],[95.189,18.852],[95.18,18.771],[95.113,18.702],[95.076,18.641],[95.067,18.588],[95.143,18.479],[95.303,18.314],[95.4,18.181],[95.433,18.083],[95.452,17.956],[95.455,17.856],[95.456,17.803],[95.472,17.744],[95.485,17.698],[95.539,17.642],[95.561,17.586],[95.552,17.529],[95.58,17.48],[95.645,17.439],[95.655,17.39],[95.611,17.332],[95.603,17.254],[95.632,17.158],[95.625,17.086],[95.582,17.039],[95.574,16.977],[95.6,16.902],[95.543,16.837],[95.481,16.814],[95.404,16.784],[95.331,16.721],[95.322,16.647],[95.236,16.52],[95.0,16.259]]]}},{"type":"Feature","properties":{"name":"Gan","scalerank":6},"geometry":{"type":"LineString","coordinates":[[114.412,24.707],[114.48,24.708],[114.53,24.735],[114.614,24.816],[114.73,24.882],[114.762,24.953],[114.755,25.0]]}},{"type":"Feature","properties":{"name":"Hong","scalerank":6},"geometry":{"type":"MultiLineString","coordinates":[[[106.518,20.289],[106.387,20.348],[106.329,20.356],[106.288,20.34],[106.27,20.347],[106.276,20.377],[106.264,20.398],[106.234,20.408],[106.196,20.466],[106.149,20.572],[106.109,20.623],[106.076,20.619],[106.023,20.665],[105.951,20.761],[105.909,20.861],[105.897,20.964],[105.836,21.051],[105.725,21.122],[105.626,21.162],[105.538,21.17],[105.477,21.203],[105.426,21.292],[105.325,21.273],[105.275,21.301],[105.241,21.37],[105.216,21.389],[105.197,21.358],[105.118,21.43],[104.977,21.604],[104.692,21.875],[104.052,22.424],[103.479,22.902],[103.161,23.121],[102.906,23.24],[102.614,23.353],[102.119,23.514],[101.892,23.699],[101.745,23.857],[101.601,24.049],[101.507,24.208],[101.463,24.335],[101.41,24.434],[101.349,24.505],[101.292,24.54],[101.238,24.538],[101.118,24.655],[100.931,24.891],[100.815,25.0]],[[100.795,25.0],[100.76,24.993],[100.731,25.0]]]}},{"type":"Feature","properties":{"name":"Hongshui","scalerank":4},"geometry":{"type":"LineString","coordinates":[[107.164,25.0],[107.277,24.875],[107.315,24.796],[107.312,24.729],[107.362,24.603],[107.467,24.417],[107.542,24.318],[107.586,24.308],[107.608,24.281],[107.608,24.236],[107.578,24.189],[107.516,24.139],[107.494,24.087],[107.512,24.031],[107.547,23.986],[107.601,23.954],[107.643,23.945],[107.674,23.961],[107.733,23.905],[107.821,23.776],[107.902,23.722],[107.975,23.744],[108.039,23.782],[108.094,23.836],[108.131,23.857],[108.152,23.843],[108.223,23.889],[108.343,23.995],[108.453,24.035],[108.552,24.007],[108.631,23.96],[108.691,23.891],[108.758,23.85],[108.833,23.836],[108.865,23.806],[108.855,23.758],[108.873,23.71],[108.919,23.662],[108.999,23.663],[109.112,23.712],[109.192,23.723],[109.238,23.695],[109.281,23.688],[109.322,23.7],[109.369,23.746],[109.423,23.825],[109.469,23.847],[109.529,23.796]]}},{"type":"Feature","properties":{"name":"Irrawaddy Delta","scalerank":2},"geometry":{"type":"MultiLineString","coordinates":[[[95.0,17.359],[95.042,17.371],[95.12,17.472],[95.21,17.656],[95.304,17.766],[95.455,17.856],[95.482,17.88],[95.52,17.908],[95.575,17.904],[95.633,17.81],[95.694,17.625],[95.783,17.438],[95.899,17.251],[95.956,17.13],[95.952,17.074],[96.042,16.969],[96.09,16.847],[96.189,16.768]],[[95.481,16.814],[95.323,16.328],[95.237,16.133],[95.133,16.025],[95.099,15.958],[95.078,15.839]],[[95.6,16.902],[95.649,16.768],[95.719,16.709],[95.829,16.653],[95.872,16.593],[95.847,16.529],[95.845,16.478],[95.867,16.44],[95.91,16.412],[95.994,16.39],[96.043,16.34]],[[95.472,17.744],[95.406,17.718],[95.356,17.666],[95.296,17.554],[95.291,17.502],[95.323,17.468],[95.34,17.431],[95.335,17.379],[95.317,17.348],[95.276,17.323],[95.263,17.302],[95.253,17.224],[95.248,17.178],[95.213,17.144],[95.186,17.078],[95.166,16.979],[95.175,16.903],[95.213,16.852],[95.222,16.796],[95.176,16.674],[95.145,16.61],[95.107,16.574],[95.061,16.566],[95.014,16.503],[95.0,16.467]]]}},{"type":"Feature","properties":{"name":"Lancang","scalerank":2},"geometry":{"type":"LineString","coordinates":[[99.713,25.0],[99.828,24.853],[99.939,24.762],[100.031,24.743],[100.087,24.718],[100.106,24.687],[100.14,24.69],[100.187,24.727],[100.251,24.747],[100.332,24.75],[100.418,24.682],[100.511,24.545],[100.548,24.388],[100.529,24.211],[100.485,24.108],[100.416,24.078],[100.388,24.026],[100.401,23.953],[100.356,23.854],[100.252,23.73],[100.185,23.62],[100.139,23.473],[100.067,23.278],[100.106,23.149],[100.233,23.023],[100.313,22.887],[100.347,22.744],[100.415,22.636],[100.517,22.563],[100.567,22.502],[100.565,22.451],[100.588,22.398],[100.636,22.343],[100.647,22.306],[100.622,22.288],[100.632,22.268],[100.677,22.247],[100.705,22.205],[100.715,22.141],[100.77,22.047],[100.869,21.923],[100.984,21.845],[101.115,21.813],[101.166,21.789],[101.134,21.774],[101.128,21.705],[101.147,21.582],[101.08,21.469],[100.928,21.366],[100.82,21.314],[100.757,21.313],[100.703,21.251],[100.659,21.13],[100.614,21.059],[100.567,21.038],[100.536,20.992],[100.522,20.922],[100.549,20.884],[100.618,20.879],[100.623,20.86],[100.565,20.825],[100.493,20.813],[100.407,20.823],[100.326,20.796],[100.249,20.73],[100.184,20.589],[100.13,20.372],[100.115,20.258],[100.14,20.245],[100.174,20.273],[100.218,20.34],[100.266,20.377],[100.318,20.386],[100.373,20.34],[100.432,20.241],[100.492,20.184],[100.553,20.17],[100.589,20.073],[100.597,19.893],[100.653,19.825],[100.755,19.87],[100.857,19.878],[100.959,19.849],[101.037,19.848],[101.091,19.875],[101.153,19.872],[101.223,19.838],[101.333,19.822],[101.484,19.823],[101.699,19.89],[101.979,20.022],[102.137,20.087],[102.173,20.083],[102.205,20.058],[102.233,20.011],[102.141,19.903],[101.93,19.734],[101.823,19.604],[101.822,19.513],[101.842,19.451],[101.885,19.419],[101.886,19.372],[101.845,19.31],[101.819,19.181],[101.808,18.984],[101.816,18.855],[101.841,18.794],[101.826,18.698],[101.77,18.568],[101.658,18.422],[101.488,18.262],[101.408,18.119],[101.419,17.992],[101.459,17.902],[101.564,17.821]]}},{"type":"Feature","properties":{"name":"Mekong","scalerank":2},"geometry":{"type":"MultiLineString","coordinates":[[[104.951,11.591],[104.951,11.508],[104.976,11.472],[105.026,11.453],[105.041,11.428],[105.023,11.395],[105.044,11.212],[105.105,10.879],[105.311,10.535],[105.831,10.001]],[[104.951,11.591],[105.181,11.446],[105.266,11.356],[105.282,11.274],[105.266,11.18],[105.218,11.075],[105.199,10.978],[105.21,10.89],[105.249,10.825],[105.315,10.785],[105.358,10.723],[105.377,10.641],[105.49,10.529],[105.697,10.39],[105.879,10.299],[105.931,10.284],[106.136,10.222]],[[101.564,17.821],[101.687,17.889],[101.744,17.953],[101.775,18.033],[101.819,18.065],[101.875,18.046],[101.947,18.081],[102.035,18.17],[102.101,18.211],[102.148,18.204],[102.232,18.149],[102.352,18.046],[102.459,17.985],[102.553,17.965],[102.598,17.927],[102.596,17.87],[102.617,17.833],[102.661,17.818],[102.68,17.824],[102.675,17.852],[102.718,17.892],[102.807,17.946],[102.899,17.977],[102.991,17.986],[103.051,18.029],[103.091,18.138]],[[103.09,18.137],[103.091,18.138]],[[103.091,18.138],[103.092,18.141]],[[103.091,18.138],[103.149,18.222],[103.2,18.259],[103.263,18.278],[103.28,18.305],[103.249,18.339],[103.252,18.373],[103.288,18.408],[103.367,18.423],[103.488,18.418],[103.63,18.383],[103.792,18.316],[103.899,18.295],[103.95,18.319],[104.049,18.217],[104.196,17.988],[104.323,17.816],[104.428,17.699],[104.539,17.609],[104.656,17.547],[104.74,17.462],[104.816,17.3],[104.759,17.077],[104.744,16.884],[104.751,16.648],[104.819,16.466],[104.95,16.34],[105.026,16.238],[105.047,16.16],[105.149,16.094],[105.331,16.038],[105.406,15.987],[105.376,15.942],[105.373,15.89],[105.399,15.83],[105.462,15.78],[105.562,15.741],[105.622,15.7],[105.641,15.657],[105.639,15.586],[105.616,15.488],[105.574,15.413],[105.513,15.361],[105.52,15.331],[105.595,15.324],[105.666,15.273],[105.782,15.121],[105.868,15.033],[105.907,14.944],[105.926,14.826],[105.915,14.713],[105.873,14.606],[105.86,14.495],[105.873,14.38],[105.864,14.267],[105.832,14.158],[105.855,14.07],[105.934,14.005],[105.981,13.948],[105.996,13.9],[105.996,13.852],[105.982,13.803],[105.991,13.752],[106.021,13.698],[106.005,13.609],[105.94,13.486],[105.918,13.405],[105.949,13.35],[106.023,13.196],[106.025,13.061],[105.981,12.893],[105.978,12.683],[106.018,12.428],[105.985,12.289],[105.88,12.266],[105.763,12.264],[105.636,12.284],[105.543,12.204],[105.486,12.025],[105.389,11.936],[105.252,11.939],[105.168,11.92],[105.137,11.88],[105.09,11.855],[105.025,11.845],[105.0,11.822],[105.013,11.786],[105.002,11.747],[104.965,11.706],[104.948,11.662],[104.951,11.591]]]}},{"type":"Feature","properties":{"name":"Nanpan","scalerank":4},"geometry":{"type":"MultiLineString","coordinates":[[[103.614,25.0],[103.488,24.939],[103.448,24.935],[103.416,24.955],[103.392,25.0],[103.392,25.0]],[[103.254,25.0],[103.219,24.994],[103.165,24.944],[103.165,24.863],[103.132,24.774],[103.064,24.677],[103.053,24.609],[103.098,24.57],[103.105,24.52],[103.074,24.458],[103.08,24.321],[103.146,24.004],[103.169,23.87],[103.195,23.818],[103.232,23.802],[103.262,23.81],[103.288,23.84],[103.376,23.863],[103.527,23.88],[103.61,23.916],[103.626,23.97],[103.619,24.02],[103.59,24.065],[103.591,24.11],[103.623,24.153],[103.674,24.185],[103.746,24.204],[103.825,24.27],[103.912,24.385],[103.987,24.442],[104.052,24.441],[104.151,24.472],[104.353,24.562],[104.537,24.741],[104.681,24.659],[104.8,24.673],[104.941,24.756],[105.056,24.85],[105.144,24.956],[105.208,24.991],[105.247,24.956],[105.308,24.937],[105.39,24.935],[105.45,24.905],[105.489,24.847],[105.583,24.79],[105.731,24.735],[105.833,24.712],[105.888,24.723],[105.942,24.707],[105.994,24.664],[106.065,24.689],[106.154,24.783],[106.188,24.862],[106.166,24.928],[106.231,24.979],[106.313,25.0]]]}},{"type":"Feature","properties":{"name":"Nu","scalerank":4},"geometry":{"type":"LineString","coordinates":[[98.87,25.0],[98.871,24.991],[98.927,24.828],[98.98,24.723],[99.03,24.677],[99.036,24.594],[98.998,24.475],[99.016,24.383],[99.089,24.317],[99.058,24.248],[98.922,24.175],[98.764,24.116],[98.583,24.07],[98.473,24.026],[98.432,23.984],[98.42,23.933],[98.437,23.872],[98.496,23.783],[98.598,23.667],[98.638,23.563],[98.617,23.472],[98.635,23.417],[98.692,23.398],[98.721,23.357],[98.723,23.294],[98.654,23.248],[98.514,23.22],[98.474,23.173],[98.534,23.109],[98.548,23.068],[98.516,23.051],[98.504,23.024],[98.513,22.988],[98.554,22.953],[98.628,22.918],[98.629,22.871],[98.558,22.812],[98.553,22.706],[98.614,22.555],[98.626,22.432],[98.588,22.336],[98.587,22.251],[98.625,22.177],[98.676,22.115],[98.742,22.065],[98.718,21.995],[98.605,21.905],[98.574,21.79],[98.624,21.651],[98.629,21.564],[98.589,21.531],[98.595,21.483],[98.647,21.421],[98.681,21.337],[98.696,21.231],[98.726,21.145],[98.773,21.077],[98.724,21.02],[98.508,20.951]]}},{"type":"Feature","properties":{"name":"Quan","scalerank":4},"geometry":{"type":"LineString","coordinates":[[109.529,23.796],[109.543,23.729],[109.575,23.7],[109.629,23.688],[109.651,23.665],[109.641,23.629],[109.663,23.575],[109.717,23.502],[109.796,23.454],[109.9,23.43],[109.963,23.431],[109.986,23.455],[110.021,23.452],[110.089,23.405]]}},{"type":"Feature","properties":{"name":"Salween","scalerank":4},"geometry":{"type":"LineString","coordinates":[[98.508,20.951],[98.502,20.828],[98.538,20.712],[98.613,20.561],[98.66,20.414],[98.679,20.272],[98.552,20.149],[98.141,19.99],[97.943,19.961],[97.865,19.929],[97.841,19.884],[97.81,19.858],[97.771,19.85],[97.696,19.718],[97.531,19.331],[97.457,18.852],[97.44,18.831],[97.406,18.828],[97.353,18.843],[97.332,18.778],[97.341,18.634],[97.381,18.494],[97.451,18.36],[97.524,18.296],[97.599,18.303],[97.632,18.29],[97.622,18.258],[97.652,18.174],[97.72,18.037],[97.74,17.935],[97.699,17.834],[97.755,17.571],[97.749,17.444],[97.7,17.364],[97.659,17.251],[97.626,17.107],[97.609,16.947],[97.606,16.772],[97.622,16.652],[97.668,16.552]]}},{"type":"Feature","properties":{"name":"Xi","scalerank":4},"geometry":{"type":"MultiLineString","coordinates":[[[113.035,22.795],[113.095,22.73],[113.166,22.576],[113.214,22.483],[113.264,22.363],[113.416,22.178]],[[113.035,22.795],[113.299,22.698],[113.395,22.651],[113.444,22.599],[113.492,22.591],[113.552,22.587]],[[112.98,23.041],[113.445,23.055]],[[112.805,23.148],[112.819,23.082],[112.891,22.918],[112.963,22.822],[113.035,22.795]],[[112.805,23.148],[112.912,23.113],[112.974,23.052],[113.024,22.954],[113.09,22.907],[113.213,22.912],[113.338,22.889]],[[111.301,23.481],[111.433,23.449],[111.499,23.375],[111.542,23.249],[111.707,23.161],[112.137,23.09],[112.271,23.142],[112.353,23.132],[112.427,23.076],[112.498,23.078],[112.563,23.136],[112.643,23.165],[112.736,23.164],[112.805,23.148]]]}},{"type":"Feature","properties":{"name":"Xun","scalerank":4},"geometry":{"type":"LineString","coordinates":[[110.089,23.408],[110.201,23.545],[110.334,23.555],[110.622,23.45],[110.745,23.466],[110.814,23.447],[110.868,23.397],[110.997,23.399],[111.301,23.481]]}},{"type":"Feature","properties":{"name":null,"scalerank":5},"geometry":{"type":"MultiLineString","coordinates":[[[106.464,10.298],[106.385,10.33],[106.138,10.306]],[[106.138,10.306],[105.931,10.284]],[[106.138,10.306],[106.184,10.253],[106.222,10.245],[106.292,10.262],[106.33,10.247],[106.36,10.211],[106.408,10.117],[106.468,10.05],[106.519,10.015],[106.579,9.979],[106.658,9.949]]]}}]}